STARLINK-37803          
1 69319U 26119Z   26160.91668981  .00075020  00000+0  38964-3 0  9996
2 69319  97.2836 186.3838 0000876  84.6205 308.1379 15.80782606  2835
GUOWANG TEST OBJECT A   
1 69320U 26120A   26158.46264223  .00009002  00000+0  24096-3 0  9996
2 69320  54.9967  71.5399 0009599 294.3963  65.6063 15.38803685  1198
GUOWANG TEST OBJECT B   
1 69321U 26120B   26155.27875762  .00027005  00000+0  69390-3 0  9998
2 69321  55.0006  85.8667 0009100 296.4175  63.5919 15.39121370   705
GUOWANG TEST OBJECT C   
1 69322U 26120C   26158.00485189  .00017755  00000+0  45417-3 0  9998
2 69322  54.9981  73.5721 0009555 307.3825  52.6333 15.39521743  1123
GUOWANG TEST OBJECT D   
1 69323U 26120D   26155.66644343  .00032137  00000+0  80800-3 0  9993
2 69323  55.0029  84.1123 0008002 301.7889  58.2360 15.39704502   764
QIANFAN-163             
1 69325U 26121A   26158.95635699  .00000032  00000+0  25988-4 0  9991
2 69325  89.0167 301.4498 0019200 214.2671 145.7248 13.60351284   905
QIANFAN-164             
1 69326U 26121B   26160.86782546  .00000123  00000+0  14746-3 0  9999
2 69326  89.0161 301.2557 0018787 209.6974 150.3118 13.60504926  1167
SZ-22 MODULE            
1 69328U 25272C   26160.87796891  .00018917  00000+0  23138-3 0  9991
2 69328  41.4814   6.5348 0007274  25.6498 334.4700 15.59924700  2186
STARLINK-37733          
1 69329U 26122A   26160.58337963 -.01206876  42508-3 -37480-2 0  9999
2 69329  97.2858 189.5543 0000992  89.1877 299.7028 15.91652572  2131
STARLINK-37772          
1 69330U 26122B   26160.58337963 -.01213063  43305-3 -35960-2 0  9994
2 69330  97.2862 189.5589 0001011  82.5752 317.0183 15.92558321  2088
STARLINK-37768          
1 69331U 26122C   26160.58337963 -.01223152  44103-3 -35722-2 0  9998
2 69331  97.2863 189.5604 0000992  88.4402 314.5520 15.92847805  2087
STARLINK-37833          
1 69332U 26122D   26160.58337963 -.01221354  44117-3 -35119-2 0  9996
2 69332  97.2862 189.5616 0001026  79.9094 326.3266 15.93147030  2083
STARLINK-37818          
1 69333U 26122E   26160.58337963 -.01214498  43654-3 -34943-2 0  9997
2 69333  97.2865 189.5621 0001021  80.1947 326.8941 15.93134468  2131
STARLINK-37868          
1 69334U 26122F   26160.58337963 -.01220754  44182-3 -34675-2 0  9999
2 69334  97.2865 189.5633 0000982  90.4257 319.7453 15.93381635  2137
STARLINK-37877          
1 69335U 26122G   26160.58337963 -.01216154  43870-3 -34560-2 0  9995
2 69335  97.2864 189.5635 0001039  82.1771 328.8971 15.93372417  2136
STARLINK-37791          
1 69336U 26122H   26160.58337963 -.01208996  43451-3 -34124-2 0  9992
2 69336  97.2865 189.5652 0001050  83.0593 331.7081 15.93501422  2137
STARLINK-37765          
1 69337U 26122J   26160.58337963 -.01232280  45234-3 -33925-2 0  9995
2 69337  97.2866 189.5674 0000975  90.9688 329.1323 15.93980628  2184
STARLINK-37788          
1 69338U 26122K   26160.58337963 -.01207231  43682-3 -32705-2 0  9994
2 69338  97.2868 189.5688 0001030  81.0498 342.3053 15.94282733  2130
STARLINK-37743          
1 69339U 26122L   26160.58337963 -.01210046  43877-3 -32760-2 0  9990
2 69339  97.2867 189.5690 0001034  82.6363 341.9058 15.94295499  2138
STARLINK-37780          
1 69340U 26122M   26160.58337963 -.01188983  42544-3 -31912-2 0  9994
2 69340  97.2867 189.5701 0000983  92.8936 333.8178 15.94456940  2182
STARLINK-37781          
1 69341U 26122N   26160.58337963 -.01178514  41847-3 -31652-2 0  9990
2 69341  97.2866 189.5704 0000962  94.3390 333.0908 15.94442552  2135
STARLINK-37782          
1 69342U 26122P   26160.58337963 -.01197442  43322-3 -31334-2 0  9999
2 69342  97.2865 189.5727 0001029  84.7376 348.1616 15.94936558  2139
STARLINK-37776          
1 69343U 26122Q   26160.58337963 -.01198828  43488-3 -31101-2 0  9994
2 69343  97.2864 189.5736 0001037  81.0439 354.2122 15.95098714  2132
STARLINK-37786          
1 69344U 26122R   26160.58337963 -.01189654  43064-3 -30172-2 0  9999
2 69344  97.2867 189.5761 0001022  80.9653 359.9626 15.95521657  2132
STARLINK-37785          
1 69345U 26122S   26160.58337963 -.01186027  42815-3 -30104-2 0  9999
2 69345  97.2865 189.5763 0000990  91.9813 349.8603 15.95506324  2133
STARLINK-37773          
1 69346U 26122T   26160.58337963 -.01177714  42335-3 -29626-2 0  9997
2 69346  97.2865 189.5773 0001064  80.3075   3.7816 15.95672907  2188
STARLINK-37744          
1 69347U 26122U   26160.58337963 -.01194722  43584-3 -29672-2 0  9994
2 69347  97.2865 189.5785 0001028  80.9917   6.1321 15.95913577  2137
STARLINK-37775          
1 69348U 26122V   26160.58337963 -.01186422  43113-3 -29159-2 0  9991
2 69348  97.2866 189.5799 0000999 103.5744 346.3928 15.96106962  2135
