OBJECT_NAME,OBJECT_ID,EPOCH,MEAN_MOTION,ECCENTRICITY,INCLINATION,RA_OF_ASC_NODE,ARG_OF_PERICENTER,MEAN_ANOMALY,EPHEMERIS_TYPE,CLASSIFICATION_TYPE,NORAD_CAT_ID,ELEMENT_SET_NO,REV_AT_EPOCH,BSTAR,MEAN_MOTION_DOT,MEAN_MOTION_DDOT
STARLINK-37803,2026-119Z,2026-06-09T22:00:01.999584,15.80782606,.00008765,97.2836,186.3838,84.6205,308.1379,0,U,69319,999,283,.3896352E-3,.7502E-3,0
GUOWANG TEST OBJECT A,2026-120A,2026-06-07T11:06:12.288672,15.38803685,.00095994,54.9967,71.5399,294.3963,65.6063,0,U,69320,999,119,.24095813E-3,.9002E-4,0
GUOWANG TEST OBJECT B,2026-120B,2026-06-04T06:41:24.658368,15.39121370,.00091004,55.0006,85.8667,296.4175,63.5919,0,U,69321,999,70,.6938966E-3,.27005E-3,0
GUOWANG TEST OBJECT C,2026-120C,2026-06-07T00:06:59.203296,15.39521743,.00095552,54.9981,73.5721,307.3825,52.6333,0,U,69322,999,112,.45417396E-3,.17755E-3,0
GUOWANG TEST OBJECT D,2026-120D,2026-06-04T15:59:40.712352,15.39704502,.00080029,55.0029,84.1123,301.7889,58.2360,0,U,69323,999,76,.80800046E-3,.32137E-3,0
QIANFAN-163,2026-121A,2026-06-07T22:57:09.243936,13.60351284,.00192,89.0167,301.4498,214.2671,145.7248,0,U,69325,999,90,.25988E-4,.32E-6,0
QIANFAN-164,2026-121B,2026-06-09T20:49:40.119744,13.60504926,.00187873,89.0161,301.2557,209.6974,150.3118,0,U,69326,999,116,.1474606E-3,.123E-5,0
SZ-22 MODULE,2025-272C,2026-06-09T21:04:16.513824,15.59924700,.00072746,41.4814,6.5348,25.6498,334.4700,0,U,69328,999,218,.23138255E-3,.18917E-3,0
STARLINK-37733,2026-122A,2026-06-09T14:00:04.000032,15.91652572,.00009921,97.2858,189.5543,89.1877,299.7028,0,U,69329,999,213,-.37480283E-2,-.1206876E-1,.42508222E-3
STARLINK-37772,2026-122B,2026-06-09T14:00:04.000032,15.92558321,.00010119,97.2862,189.5589,82.5752,317.0183,0,U,69330,999,208,-.35959789E-2,-.1213063E-1,.43304694E-3
STARLINK-37768,2026-122C,2026-06-09T14:00:04.000032,15.92847805,.00009921,97.2863,189.5604,88.4402,314.5520,0,U,69331,999,208,-.35722302E-2,-.1223152E-1,.44102606E-3
STARLINK-37833,2026-122D,2026-06-09T14:00:04.000032,15.93147030,.00010261,97.2862,189.5616,79.9094,326.3266,0,U,69332,999,208,-.35119104E-2,-.1221354E-1,.44116641E-3
STARLINK-37818,2026-122E,2026-06-09T14:00:04.000032,15.93134468,.00010218,97.2865,189.5621,80.1947,326.8941,0,U,69333,999,213,-.34943012E-2,-.1214498E-1,.43653709E-3
STARLINK-37868,2026-122F,2026-06-09T14:00:04.000032,15.93381635,.00009827,97.2865,189.5633,90.4257,319.7453,0,U,69334,999,213,-.34675398E-2,-.1220754E-1,.44181718E-3
STARLINK-37877,2026-122G,2026-06-09T14:00:04.000032,15.93372417,.0001039,97.2864,189.5635,82.1771,328.8971,0,U,69335,999,213,-.34559971E-2,-.1216154E-1,.43870116E-3
STARLINK-37791,2026-122H,2026-06-09T14:00:04.000032,15.93501422,.00010506,97.2865,189.5652,83.0593,331.7081,0,U,69336,999,213,-.34124084E-2,-.1208996E-1,.43450506E-3
STARLINK-37765,2026-122J,2026-06-09T14:00:04.000032,15.93980628,.0000975,97.2866,189.5674,90.9688,329.1323,0,U,69337,999,218,-.33925194E-2,-.123228E-1,.45233541E-3
STARLINK-37788,2026-122K,2026-06-09T14:00:04.000032,15.94282733,.00010306,97.2868,189.5688,81.0498,342.3053,0,U,69338,999,213,-.32704926E-2,-.1207231E-1,.43682353E-3
STARLINK-37743,2026-122L,2026-06-09T14:00:04.000032,15.94295499,.00010343,97.2867,189.5690,82.6363,341.9058,0,U,69339,999,213,-.32759837E-2,-.1210046E-1,.43876859E-3
STARLINK-37780,2026-122M,2026-06-09T14:00:04.000032,15.94456940,.0000983,97.2867,189.5701,92.8936,333.8178,0,U,69340,999,218,-.31911561E-2,-.1188983E-1,.4254435E-3
STARLINK-37781,2026-122N,2026-06-09T14:00:04.000032,15.94442552,.00009626,97.2866,189.5704,94.3390,333.0908,0,U,69341,999,213,-.31652184E-2,-.1178514E-1,.41847189E-3
STARLINK-37782,2026-122P,2026-06-09T14:00:04.000032,15.94936558,.0001029,97.2865,189.5727,84.7376,348.1616,0,U,69342,999,213,-.31334121E-2,-.1197442E-1,.43321734E-3
STARLINK-37776,2026-122Q,2026-06-09T14:00:04.000032,15.95098714,.00010377,97.2864,189.5736,81.0439,354.2122,0,U,69343,999,213,-.31101322E-2,-.1198828E-1,.43488106E-3
STARLINK-37786,2026-122R,2026-06-09T14:00:04.000032,15.95521657,.00010226,97.2867,189.5761,80.9653,359.9626,0,U,69344,999,213,-.3017247E-2,-.1189654E-1,.43064485E-3
STARLINK-37785,2026-122S,2026-06-09T14:00:04.000032,15.95506324,.00009908,97.2865,189.5763,91.9813,349.8603,0,U,69345,999,213,-.30104441E-2,-.1186027E-1,.42814671E-3
STARLINK-37773,2026-122T,2026-06-09T14:00:04.000032,15.95672907,.00010644,97.2865,189.5773,80.3075,3.7816,0,U,69346,999,218,-.29625853E-2,-.1177714E-1,.42335212E-3
STARLINK-37744,2026-122U,2026-06-09T14:00:04.000032,15.95913577,.00010281,97.2865,189.5785,80.9917,6.1321,0,U,69347,999,213,-.29672013E-2,-.1194722E-1,.43584089E-3
STARLINK-37775,2026-122V,2026-06-09T14:00:04.000032,15.96106962,.00009999,97.2866,189.5799,103.5744,346.3928,0,U,69348,999,213,-.29159095E-2,-.1186422E-1,.43113032E-3
